LEMUR-2-PETERG          
1 42841U 17042S   26068.48235713  .00023240  00000+0  81076-3 0  9993
2 42841  97.3980 253.6596 0003700 341.6938  18.4169 15.29611459473171
STARLINK-33978          
1 63832U 25092AE  26068.34448351  .00024580  00000+0  89975-3 0  9993
2 63832  43.0046 174.3492 0004886 149.0679 211.0462 15.27573000 48618
